ONEWEB-0365             
1 49291U 21090N   26189.26377811  .00000099  00000+0  21372-3 0  9993
2 49291  87.9191 300.7703 0002021 102.5427 257.5932 13.19726231229201
ONEWEB-0366             
1 49292U 21090P   26189.21604626 -.00000143  00000+0 -42035-3 0  9997
2 49292  87.8971 285.5162 0002015  99.2487 260.8870 13.14502047230322
ONEWEB-0367             
1 49293U 21090Q   26189.52657690  .00000060  00000+0  11516-3 0  9997
2 49293  87.9191 270.1889 0002176 103.5802 256.5574 13.20773512232646
ONEWEB-0368             
1 49294U 21090R   26189.50048910  .00000055  00000+0  10286-3 0  9992
2 49294  87.9179 270.2017 0001412 111.3369 248.7916 13.20771473233798
ONEWEB-0369             
1 49295U 21090S   26189.25904073  .00000068  00000+0  13733-3 0  9990
2 49295  87.9184 300.7771 0001934 102.5253 257.6096 13.19726122229190
ONEWEB-0370             
1 49296U 21090T   26189.15705484  .00000080  00000+0  16480-3 0  9991
2 49296  87.9191 270.2615 0002364  97.8533 262.2869 13.20772147232635
ONEWEB-0371             
1 49297U 21090U   26189.26693047  .00000047  00000+0  85864-4 0  9991
2 49297  87.9193 300.7692 0002077 102.2485 257.8880 13.19725005229234
ONEWEB-0372             
1 49298U 21090V   26188.76801490 -.00000068  00000+0 -19907-3 0  9998
2 49298  87.9190 270.3412 0002088 102.4990 257.6377 13.20773256232550
ONEWEB-0373             
1 49299U 21090W   26189.47522495  .00000093  00000+0  19656-3 0  9990
2 49299  87.9188 270.2001 0002113  96.7375 263.3999 13.20773178233831
ONEWEB-0374             
1 49300U 21090X   26189.50782349  .00000051  00000+0  10261-3 0  9990
2 49300  87.8977 285.4500 0001687  84.7097 275.4225 13.14503199230362
ONEWEB-0375             
1 49301U 21090Y   26189.46344337  .00000052  00000+0  94818-4 0  9999
2 49301  87.9190 270.1944 0001834  84.2891 275.8451 13.20772921233338
ONEWEB-0376             
1 49302U 21090Z   26189.26535031  .00000043  00000+0  75242-4 0  9991
2 49302  87.9193 300.7692 0001986 106.4852 253.6499 13.19726313229236
ONEWEB-0377             
1 49303U 21090AA  26189.45011658 -.00000037  00000+0 -12177-3 0  9999
2 49303  87.9191 270.1992 0002003  94.5596 265.5767 13.20773398233323
ONEWEB-0378             
1 49304U 21090AB  26189.47032500  .00000108  00000+0  23261-3 0  9994
2 49304  87.9186 270.1993 0002012  97.6345 262.5017 13.20771737232593
ONEWEB-0379             
1 49305U 21090AC  26189.50306988  .00000128  00000+0  30966-3 0  9995
2 49305  87.8972 285.4613 0001899  98.2810 261.8536 13.14502788230362
ONEWEB-0380             
1 49306U 21090AD  26189.26220147  .00000094  00000+0  20142-3 0  9998
2 49306  87.9183 300.7741 0002011  95.0422 265.0940 13.19726300229201
ONEWEB-0381             
1 49307U 21090AE  26189.21932691  .00000028  00000+0  36894-4 0  9997
2 49307  87.9192 270.2497 0001886  91.2611 268.8738 13.20773335232604
ONEWEB-0382             
1 49308U 21090AF  26189.58466133 -.00000154  00000+0 -41170-3 0  9995
2 49308  87.9187 270.1711 0001779  95.3604 264.7732 13.20771220232649
ONEWEB-0383             
1 49309U 21090AG  26188.81167011  .00000141  00000+0  34656-3 0  9999
2 49309  87.8976 285.5907 0001825  98.5035 261.6301 13.14502522230306
ONEWEB-0384             
1 49310U 21090AH  26189.19385276  .00000080  00000+0  16540-3 0  9992
2 49310  87.9194 270.2925 0001625  94.9947 265.1372 13.20813666232605
ONEWEB-0385             
1 49311U 21090AJ  26189.50214658 -.00000129  00000+0 -34832-3 0  9993
2 49311  87.9192 270.1926 0001970  94.9292 265.2066 13.20771114232613
ONEWEB-0386             
1 49312U 21090AK  26189.51899178  .00000080  00000+0  16494-3 0  9999
2 49312  87.9196 270.1810 0001838  94.6200 265.5143 13.20773715232639
ONEWEB-0387             
1 49313U 21090AL  26189.50382862  .00000126  00000+0  27913-3 0  9995
2 49313  87.9180 270.2041 0002183  90.2377 269.9006 13.20773896232637
ONEWEB-0388             
1 49314U 21090AM  26189.56072763  .00000032  00000+0  48039-4 0  9997
2 49314  87.9181 300.7132 0001813  98.1454 261.9885 13.19726556229239
ONEWEB-0389             
1 50469U 21132A   26189.46083985  .00000081  00000+0  17672-3 0  9996
2 50469  87.9139   1.6352 0001849  80.6789 279.4551 13.17650189220884
ONEWEB-0390             
1 50470U 21132B   26189.46252748  .00000066  00000+0  13785-3 0  9997
2 50470  87.9138   1.6355 0002108  90.2049 269.9324 13.17650302220882
ONEWEB-0391             
1 50471U 21132C   26189.46421547 -.00000016  00000+0 -74266-4 0  9992
2 50471  87.9144   1.6453 0002288  73.0070 287.1312 13.17649749220883
ONEWEB-0392             
1 50472U 21132D   26189.41865841  .00000023  00000+0  26118-4 0  9996
2 50472  87.9147   1.6244 0001942  78.9766 281.1584 13.17650843220913
ONEWEB-0393             
1 50473U 21132E   26189.47011958  .00000092  00000+0  20361-3 0  9994
2 50473  87.9139   1.6296 0001874  86.8529 273.2817 13.17647551220914
ONEWEB-0394             
1 50474U 21132F   26189.34352144  .00000111  00000+0  24870-3 0  9997
2 50474  87.9189 331.2348 0001731  94.8395 265.2935 13.18684426224382
