OBJECT_NAME,OBJECT_ID,EPOCH,MEAN_MOTION,ECCENTRICITY,INCLINATION,RA_OF_ASC_NODE,ARG_OF_PERICENTER,MEAN_ANOMALY,EPHEMERIS_TYPE,CLASSIFICATION_TYPE,NORAD_CAT_ID,ELEMENT_SET_NO,REV_AT_EPOCH,BSTAR,MEAN_MOTION_DOT,MEAN_MOTION_DDOT
ONEWEB-0365,2021-090N,2026-07-08T06:19:50.428704,13.19726231,.00020215,87.9191,300.7703,102.5427,257.5932,0,U,49291,999,22920,.21371835E-3,.99E-6,0
ONEWEB-0366,2021-090P,2026-07-08T05:11:06.396864,13.14502047,.0002015,87.8971,285.5162,99.2487,260.8870,0,U,49292,999,23032,-.42035222E-3,-.143E-5,0
ONEWEB-0367,2021-090Q,2026-07-08T12:38:16.244160,13.20773512,.00021766,87.9191,270.1889,103.5802,256.5574,0,U,49293,999,23264,.11516061E-3,.6E-6,0
ONEWEB-0368,2021-090R,2026-07-08T12:00:42.258240,13.20771473,.00014121,87.9179,270.2017,111.3369,248.7916,0,U,49294,999,23379,.10285887E-3,.55E-6,0
ONEWEB-0369,2021-090S,2026-07-08T06:13:01.119072,13.19726122,.00019348,87.9184,300.7771,102.5253,257.6096,0,U,49295,999,22919,.13733216E-3,.68E-6,0
ONEWEB-0370,2021-090T,2026-07-08T03:46:09.538176,13.20772147,.00023643,87.9191,270.2615,97.8533,262.2869,0,U,49296,999,23263,.16480311E-3,.8E-6,0
ONEWEB-0371,2021-090U,2026-07-08T06:24:22.792608,13.19725005,.00020771,87.9193,300.7692,102.2485,257.8880,0,U,49297,999,22923,.85864239E-4,.47E-6,0
ONEWEB-0372,2021-090V,2026-07-07T18:25:56.487360,13.20773256,.00020881,87.9190,270.3412,102.4990,257.6377,0,U,49298,999,23255,-.19907359E-3,-.68E-6,0
ONEWEB-0373,2021-090W,2026-07-08T11:24:19.435680,13.20773178,.00021139,87.9188,270.2001,96.7375,263.3999,0,U,49299,999,23383,.19656066E-3,.93E-6,0
ONEWEB-0374,2021-090X,2026-07-08T12:11:15.949536,13.14503199,.00016873,87.8977,285.4500,84.7097,275.4225,0,U,49300,999,23036,.10261314E-3,.51E-6,0
ONEWEB-0375,2021-090Y,2026-07-08T11:07:21.507168,13.20772921,.00018341,87.9190,270.1944,84.2891,275.8451,0,U,49301,999,23333,.94818406E-4,.52E-6,0
ONEWEB-0376,2021-090Z,2026-07-08T06:22:06.266784,13.19726313,.00019862,87.9193,300.7692,106.4852,253.6499,0,U,49302,999,22923,.75241537E-4,.43E-6,0
ONEWEB-0377,2021-090AA,2026-07-08T10:48:10.072512,13.20773398,.00020038,87.9191,270.1992,94.5596,265.5767,0,U,49303,999,23332,-.12176829E-3,-.37E-6,0
ONEWEB-0378,2021-090AB,2026-07-08T11:17:16.080000,13.20771737,.00020124,87.9186,270.1993,97.6345,262.5017,0,U,49304,999,23259,.23261244E-3,.108E-5,0
ONEWEB-0379,2021-090AC,2026-07-08T12:04:25.237632,13.14502788,.00018995,87.8972,285.4613,98.2810,261.8536,0,U,49305,999,23036,.30966114E-3,.128E-5,0
ONEWEB-0380,2021-090AD,2026-07-08T06:17:34.207008,13.19726300,.00020118,87.9183,300.7741,95.0422,265.0940,0,U,49306,999,22920,.20141793E-3,.94E-6,0
ONEWEB-0381,2021-090AE,2026-07-08T05:15:49.845024,13.20773335,.00018869,87.9192,270.2497,91.2611,268.8738,0,U,49307,999,23260,.36893672E-4,.28E-6,0
ONEWEB-0382,2021-090AF,2026-07-08T14:01:54.738912,13.20771220,.00017799,87.9187,270.1711,95.3604,264.7732,0,U,49308,999,23264,-.41170289E-3,-.154E-5,0
ONEWEB-0383,2021-090AG,2026-07-07T19:28:48.297504,13.14502522,.00018251,87.8976,285.5907,98.5035,261.6301,0,U,49309,999,23030,.34656485E-3,.141E-5,0
ONEWEB-0384,2021-090AH,2026-07-08T04:39:08.878464,13.20813666,.00016259,87.9194,270.2925,94.9947,265.1372,0,U,49310,999,23260,.16539742E-3,.8E-6,0
ONEWEB-0385,2021-090AJ,2026-07-08T12:03:05.464512,13.20771114,.00019707,87.9192,270.1926,94.9292,265.2066,0,U,49311,999,23261,-.34832316E-3,-.129E-5,0
ONEWEB-0386,2021-090AK,2026-07-08T12:27:20.889792,13.20773715,.00018386,87.9196,270.1810,94.6200,265.5143,0,U,49312,999,23263,.16493686E-3,.8E-6,0
ONEWEB-0387,2021-090AL,2026-07-08T12:05:30.792768,13.20773896,.00021831,87.9180,270.2041,90.2377,269.9006,0,U,49313,999,23263,.27912594E-3,.126E-5,0
ONEWEB-0388,2021-090AM,2026-07-08T13:27:26.867232,13.19726556,.00018139,87.9181,300.7132,98.1454,261.9885,0,U,49314,999,22923,.48038812E-4,.32E-6,0
ONEWEB-0389,2021-132A,2026-07-08T11:03:36.563040,13.17650189,.00018497,87.9139,1.6352,80.6789,279.4551,0,U,50469,999,22088,.17671835E-3,.81E-6,0
ONEWEB-0390,2021-132B,2026-07-08T11:06:02.374272,13.17650302,.00021085,87.9138,1.6355,90.2049,269.9324,0,U,50470,999,22088,.13785433E-3,.66E-6,0
ONEWEB-0391,2021-132C,2026-07-08T11:08:28.216608,13.17649749,.00022888,87.9144,1.6453,73.0070,287.1312,0,U,50471,999,22088,-.74265601E-4,-.16E-6,0
ONEWEB-0392,2021-132D,2026-07-08T10:02:52.086624,13.17650843,.00019425,87.9147,1.6244,78.9766,281.1584,0,U,50472,999,22091,.26117699E-4,.23E-6,0
ONEWEB-0393,2021-132E,2026-07-08T11:16:58.331712,13.17647551,.00018747,87.9139,1.6296,86.8529,273.2817,0,U,50473,999,22091,.2036071E-3,.92E-6,0
ONEWEB-0394,2021-132F,2026-07-08T08:14:40.252416,13.18684426,.00017314,87.9189,331.2348,94.8395,265.2935,0,U,50474,999,22438,.24869623E-3,.111E-5,0
